ONEWEB-0157             
1 48055U 21025P   23068.85161027 -.00000290  00000+0 -82990-3 0  9994
2 48055  87.9093 197.7810 0001908 105.5695 254.5645 13.13470790 96654
ONEWEB-0162             
1 48056U 21025Q   23068.88969902  .00000243  00000+0  63049-3 0  9996
2 48056  87.9094 197.7740 0001618 102.8001 257.3309 13.13467419 96637
ONEWEB-0155             
1 48057U 21025R   23068.91085175 -.00000332  00000+0 -94392-3 0  9998
2 48057  87.9093 197.7731 0001662 108.6421 251.4888 13.13466114 96779
ONEWEB-0149             
1 48058U 21025S   23068.85583354 -.00000187  00000+0 -54752-3 0  9998
2 48058  87.9089 197.7835 0001831  92.5107 267.6232 13.13468982 96575
ONEWEB-0148             
1 48059U 21025T   23068.89603834  .00000141  00000+0  35036-3 0  9991
2 48059  87.9094 197.7815 0002361  91.9336 268.2064 13.13471306 96705
ONEWEB-0160             
1 48060U 21025U   23068.91297035 -.00000255  00000+0 -73350-3 0  9997
2 48060  87.9091 197.7762 0000536  80.7581 279.3609 13.13472475 96655
ONEWEB-0163             
1 48061U 21025V   23068.89815923 -.00000052  00000+0 -17782-3 0  9999
2 48061  87.9095 197.7682 0002110 109.2829 250.8528 13.13467207 96777
ONEWEB-0159             
1 48062U 21025W   23068.88758378  .00000150  00000+0  37711-3 0  9990
2 48062  87.9100 197.7892 0002169 106.5153 253.6215 13.13467935 96695
ONEWEB-0164             
1 48063U 21025X   23068.86852763  .00000110  00000+0  26712-3 0  9997
2 48063  87.9090 197.7695 0001511 116.9822 243.1461 13.13473731 96679
ONEWEB-0167             
1 48064U 21025Y   23068.89923043  .00000030  00000+0  47129-4 0  9998
2 48064  87.9093 197.7706 0001946 106.2364 253.8979 13.13468214 96662
ONEWEB-0166             
1 48065U 21025Z   23068.92144413 -.00000414  00000+0 -11676-2 0  9993
2 48065  87.9086 197.7678 0001832 101.5240 258.6095 13.13469511 96740
ONEWEB-0151             
1 48066U 21025AA  23068.92355397 -.00000299  00000+0 -85480-3 0  9995
2 48066  87.9093 197.7698 0001552 114.5544 245.5747 13.13469393 96681
ONEWEB-0170             
1 48067U 21025AB  23068.85372665 -.00000257  00000+0 -73891-3 0  9992
2 48067  87.9091 197.7816 0000998 128.7278 231.3940 13.13468763 96639
ONEWEB-0168             
1 48068U 21025AC  23068.91509714 -.00000388  00000+0 -10962-2 0  9991
2 48068  87.9095 197.8062 0001735 101.2060 258.9264 13.13467973 96651
ONEWEB-0173             
1 48069U 21025AD  23068.90874055 -.00000183  00000+0 -53679-3 0  9990
2 48069  87.9094 197.8196 0001960 119.9155 240.2169 13.13470505 96899
ONEWEB-0171             
1 48070U 21025AE  23068.86642342  .00000075  00000+0  17112-3 0  9999
2 48070  87.9096 197.7882 0001816 101.4503 258.6830 13.13469134 96701
ONEWEB-0172             
1 48071U 21025AF  23068.84844940 -.00000259  00000+0 -74432-3 0  9990
2 48071  87.9087 197.7779 0001736 120.7284 239.4016 13.13467358 97595
ONEWEB-0174             
1 48072U 21025AG  23068.90664144 -.00000155  00000+0 -45935-3 0  9995
2 48072  87.9085 197.7843 0001950  90.1318 270.0035 13.13464609 96926
ONEWEB-0175             
1 48073U 21025AH  23068.85793967 -.00003581  00000+0 -98440-2 0  9990
2 48073  87.9088 197.7795 0001267 131.1889 228.9349 13.13484524 96575
ONEWEB-0177             
1 48074U 21025AJ  23068.87065429  .00000115  00000+0  27906-3 0  9996
2 48074  87.9088 197.7773 0002320 113.5175 246.6199 13.13469233 96766
ONEWEB-0178             
1 48075U 21025AK  23068.88864840  .00000263  00000+0  68496-3 0  9995
2 48075  87.9093 197.7788 0001877 107.1792 252.9542 13.13470412 96818
ONEWEB-0108             
1 48076U 21025AL  23068.84948478 -.00001014  00000+0 -28123-2 0  9991
2 48076  87.9092 197.7822 0001613  96.8730 263.2583 13.13468586 96731
ONEWEB-0169             
1 48077U 21025AM  23068.87912448  .00000295  00000+0  77324-3 0  9999
2 48077  87.9096 197.7726 0001664  89.7073 270.4247 13.13468071 95393
GAOFEN 12-2             
1 48079U 21026A   23068.87881302  .00001556  00000+0  21016-3 0  9994
2 48079  97.9164  60.5363 0001479  84.3697 275.7712 14.80480105104891
FEES                    
1 48082U 21022AL  23068.91362038  .00058952  00000+0  27282-2 0  9991
2 48082  97.5092 331.0227 0010015 308.1681  51.8650 15.19861202106746
BEESAT-5                
1 48083U 21022AM  23068.90759159  .00044092  00000+0  22959-2 0  9991
2 48083  97.5013 328.8799 0016009 323.0052  37.0076 15.15756477107028
BEESAT-7                
1 48084U 21022AN  23067.23460988  .00033802  00000+0  17976-2 0  9996
2 48084  97.5063 327.1954 0016832 327.9911  32.0297 15.15063909106356
BEESAT-8                
1 48085U 21022AP  23068.64688897  .00029614  00000+0  16495-2 0  9995
2 48085  97.5088 328.4056 0017155 323.0919  36.9131 15.13440416107110
STARLINK-2048           
1 48092U 21027A   23068.93513509  .00008492  00000+0  58826-3 0  9993
2 48092  53.0554 335.9332 0001133  97.8106 262.3012 15.06403974108301
STARLINK-2404           
1 48093U 21027B   23068.23429831  .00043360  00000+0  29039-2 0  9997
2 48093  53.0526  43.9978 0001200 106.6892 253.4228 15.06502795107297
STARLINK-2412           
1 48094U 21027C   23068.64989935  .00019082  00000+0  12960-2 0  9998
2 48094  53.0540  51.9268 0001854  95.7212 264.3988 15.06413041107226
STARLINK-2414           
1 48095U 21027D   23068.32553817  .00006198  00000+0  43458-3 0  9991
2 48095  53.0560  53.3838 0001381 105.3925 254.7217 15.06403612107188
STARLINK-2417           
1 48096U 21027E   23068.23339158  .00004592  00000+0  32692-3 0  9996
2 48096  53.0556  53.8003 0001582 102.4302 257.6864 15.06405334107153
STARLINK-2418           
1 48097U 21027F   23068.21311775  .00021864  00000+0  14813-2 0  9995
2 48097  53.0553  33.8887 0001577  79.9267 280.1900 15.06420768107432
STARLINK-2421           
1 48098U 21027G   23068.65450953  .00029556  00000+0  19934-2 0  9991
2 48098  53.0554  41.9065 0001418  89.0324 271.0827 15.06425403107351
STARLINK-2428           
1 48099U 21027H   23068.64253291  .00019666  00000+0  13349-2 0  9992
2 48099  53.0530  51.9623 0002563 101.1963 258.9315 15.06414895107218
STARLINK-2430           
1 48100U 21027J   23068.33843420  .00035026  00000+0  23563-2 0  9997
2 48100  53.0543  33.3278 0001009 114.2553 245.8542 15.06437486107453
STARLINK-2436           
1 48101U 21027K   23068.65356452  .00029112  00000+0  19637-2 0  9993
2 48101  53.0541  41.9154 0001209  84.6801 275.4326 15.06428950107363
STARLINK-2437           
1 48102U 21027L   23068.16520200  .00053636  00000+0  35901-2 0  9994
2 48102  53.0552  34.1057 0000870  94.0716 266.0372 15.06424164107422
STARLINK-2438           
1 48103U 21027M   23068.87712103  .00060228  00000+0  37587-2 0  9995
2 48103  53.0530  30.6518 0004681 107.0425 253.1078 15.08942842107530
STARLINK-2439           
1 48104U 21027N   23068.91477532 -.00051768  00000+0 -34869-2 0  9996
2 48104  53.0557  35.7384 0002339  99.9896 260.1357 15.06344153107476
STARLINK-2440           
1 48105U 21027P   23068.02605662  .00014422  00000+0  98491-3 0  9992
2 48105  53.0550 344.7292 0000760 141.2619 218.8425 15.06406896108101
STARLINK-2442           
1 48106U 21027Q   23068.20943549  .00047736  00000+0  31973-2 0  9997
2 48106  53.0543  33.9156 0001628 128.3146 231.7990 15.06454460107431
STARLINK-2443           
1 48107U 21027R   23068.88764275  .00003084  00000+0  22582-3 0  9994
2 48107  53.0556  30.8626 0001713 100.0181 260.1001 15.06407212107538
STARLINK-2444           
1 48108U 21027S   23068.92727081  .00022605  00000+0  15310-2 0  9994
2 48108  53.0549  40.6841 0002778  89.2468 270.8839 15.06412865107398
STARLINK-2445           
1 48109U 21027T   23068.94108854  .00006747  00000+0  47129-3 0  9991
2 48109  53.0530  50.6208 0001483  93.0072 267.1086 15.06408376107264
STARLINK-2447           
1 48110U 21027U   23068.65082070  .00004727  00000+0  33594-3 0  9999
2 48110  53.0548  41.9307 0001156  94.6175 265.4946 15.06410052107367
STARLINK-2448           
1 48111U 21027V   23068.90884006  .00033407  00000+0  22491-2 0  9997
2 48111  53.0536  40.7394 0003155  83.3167 276.8181 15.06429391107403
STARLINK-2449           
1 48112U 21027W   23068.70290480  .00004742  00000+0  33697-3 0  9994
2 48112  53.0501  56.8565 0001185  97.8886 262.2237 15.06409162107150
STARLINK-2450           
1 48113U 21027X   23068.24076433  .00031356  00000+0  21138-2 0  9991
2 48113  53.0538  53.7656 0001542  87.6059 272.5106 15.06413842107142
STARLINK-2451           
1 48114U 21027Y   23068.66602246  .00074576  00000+0  49697-2 0  9996
2 48114  53.0553  46.8559 0001528 107.4695 252.6461 15.06423556107298
STARLINK-2452           
1 48115U 21027Z   23068.22968007  .00026835  00000+0  18126-2 0  9997
2 48115  53.0539  43.8161 0001020 121.9311 238.1777 15.06419687107291
STARLINK-2454           
1 48116U 21027AA  23068.23707657  .00012075  00000+0  82769-3 0  9997
2 48116  53.0542  53.7857 0001510  95.2635 264.8526 15.06420857107158
STARLINK-2455           
1 48117U 21027AB  23068.34117680  .00043327  00000+0  29067-2 0  9996
2 48117  53.0533  33.3112 0001095 117.6978 242.4122 15.06439666107459
STARLINK-2458           
1 48118U 21027AC  23068.88397452  .00038809  00000+0  26095-2 0  9990
2 48118  53.0544  30.8764 0001905 112.5237 247.5954 15.06406466107539
STARLINK-2459           
1 48119U 21027AD  23068.21585663  .00028530  00000+0  19249-2 0  9994
2 48119  53.0537  33.8731 0001097  99.3821 260.7292 15.06430607107426
STARLINK-2460           
1 48120U 21027AE  23068.68674212  .00001608  00000+0  12669-3 0  9993
2 48120  53.0535  51.7661 0001542  92.7769 267.3397 15.06433251107236
STARLINK-2462           
1 48121U 21027AF  23068.92359682  .00004606  00000+0  32808-3 0  9990
2 48121  53.0534  40.7013 0001206 115.3921 244.7193 15.06376913107395
STARLINK-2463           
1 48122U 21027AG  23068.32507270  .00026132  00000+0  17656-2 0  9994
2 48122  53.0560  38.3586 0001796  96.5969 263.5224 15.06424062107381
